{"type": "FeatureCollection", "features": [{"type": "Feature", "geometry": {"type": "MultiPolygon", "coordinates": [[[[126.54991857548427, 37.5961123030507], [126.54988404940309, 37.59610691822047], [126.54981731623083, 37.596111096664316], [126.54972000831769, 37.59614799015694], [126.54961536881586, 37.596213668568865], [126.54956201980642, 37.59625955957612], [126.54870766607013, 37.59810845913988], [126.54721814151645, 37.602208526194886], [126.54721233110791, 37.602266969470634], [126.54755517819322, 37.604851160654725], [126.54866031032273, 37.60635907036853], [126.54892665490887, 37.60631536720341], [126.54934958999957, 37.605262154007875], [126.54934328586995, 37.60470409326532], [126.54968451300049, 37.60388682726224], [126.55055776924273, 37.60149608624739], [126.55068744145738, 37.59975875660064], [126.5507582037326, 37.59742736127498], [126.55066594456288, 37.59712707272923], [126.55065228538736, 37.597089729329205], [126.55063141426129, 37.59704673612365], [126.5502647931971, 37.59632589403028], [126.55018782849358, 37.59622618712716], [126.54991857548427, 37.5961123030507]]], [[[126.57534518062495, 37.76270390526986], [126.59377256419792, 37.76115639368754], [126.59378361305396, 37.76116055432427], [126.59795159257098, 37.762729426320384], [126.60475845201417, 37.76529322437598], [126.60812238471297, 37.766565835747805], [126.61361426968175, 37.77113384634959], [126.61920819658307, 37.77585509399519], [126.62550256080509, 37.779136780007896], [126.63207727195096, 37.78094146802574], [126.63986470541016, 37.78087554078046], [126.65271544222377, 37.78068903373349], [126.65786805121446, 37.78089338123618], [126.66262223356621, 37.780699854732106], [126.66262250511144, 37.7806998422412], [126.66303393063342, 37.780683086549864], [126.66363953490414, 37.77731526585226], [126.66510594121127, 37.76932800997817], [126.67543299958655, 37.75295261393853], [126.67693566572987, 37.7465698359077], [126.67693569989473, 37.7465696207343], [126.67706791445394, 37.74515147181947], [126.67710670340533, 37.74475177925846], [126.6771707581217, 37.7443732634686], [126.67731963089818, 37.74373258920368], [126.67800082376186, 37.74118784993756], [126.68029003723645, 37.73168703176022], [126.68018255434329, 37.72682182498667], [126.67819543641764, 37.71746668034403], [126.67653958762659, 37.71437210877059], [126.67484453368277, 37.7114792817856], [126.67514239318173, 37.710278691450824], [126.67395634434256, 37.70053968198555], [126.6739512015525, 37.70029932369466], [126.67360933702723, 37.70030221345775], [126.6724619667769, 37.696010706222815], [126.67149315364665, 37.69032140339951], [126.67035609574275, 37.68511664428674], [126.67045385718717, 37.68352671230476], [126.6710425585616, 37.68155046182928], [126.67259235749584, 37.67804130078566], [126.67463867130579, 37.675221949996704], [126.67563861720578, 37.67355843182932], [126.67797116672966, 37.67151965522768], [126.67934339161384, 37.67082233936789], [126.69201991798536, 37.66409956938885], [126.70085006341735, 37.659854067429684], [126.70859126841313, 37.65626444184393], [126.71452266460385, 37.653503892272944], [126.71890469654038, 37.65152416911874], [126.72122215526255, 37.650505689454285], [126.72483670923809, 37.64894315021211], [126.72522418553031, 37.64887591803392], [126.72651215236587, 37.648753357496325], [126.72841677936553, 37.64859053501841], [126.72918701611988, 37.64852503110163], [126.72925415045653, 37.648520124908444], [126.73247007043427, 37.64751844511563], [126.73260293307936, 37.64747816047371], [126.73468424510935, 37.64636229873161], [126.73632179072855, 37.64311347558138], [126.74040224866165, 37.64031463547096], [126.74044651991186, 37.640261318720796], [126.7419579736116, 37.638440941087886], [126.7438846882291, 37.63697291603816], [126.74603631925834, 37.635242370143985], [126.7516927898491, 37.63261011776294], [126.75458489950051, 37.6320592944615], [126.75509925896964, 37.631964073083694], [126.75653284202875, 37.63127696470272], [126.75771108826315, 37.63066167721088], [126.75951924716875, 37.629694100285725], [126.76355441892713, 37.62769868900534], [126.7652194937244, 37.62685653089365], [126.76856213668728, 37.625157510190895], [126.77042968530706, 37.62410929102665], [126.77116641984529, 37.623680513994465], [126.77230515490075, 37.62300221412038], [126.77347169113037, 37.622308180233084], [126.78157948203908, 37.61754276186163], [126.78558150436945, 37.615213237847136], [126.78677736176765, 37.61451771931846], [126.78740754163809, 37.61415312090321], [126.7883153237371, 37.61362347437103], [126.7888097211526, 37.613331539424244], [126.79020063702882, 37.61241279536552], [126.79321822616045, 37.61039939727552], [126.79420289603625, 37.60974116295353], [126.79560702372878, 37.6087964647853], [126.79691127298027, 37.6079306926921], [126.7971674017004, 37.607773753295376], [126.80046166382361, 37.60604332945321], [126.80200935332807, 37.605395645115024], [126.80258140126219, 37.60503274958829], [126.80104952449199, 37.60359253425202], [126.80037936282312, 37.60296127478856], [126.79994096401141, 37.60254466098657], [126.79812191879434, 37.600294995918404], [126.79805296623867, 37.60020815781966], [126.79795216691004, 37.600059890009575], [126.79792345290107, 37.6000131067145], [126.797082229066, 37.597738926962585], [126.79709163160318, 37.59766291846716], [126.79718937210238, 37.59698537720214], [126.79745296436873, 37.595251153959], [126.79747532450601, 37.595161103122436], [126.79749122859687, 37.59510482832192], [126.79751509916035, 37.59504207166775], [126.79755421721427, 37.5949728710816], [126.79760789942578, 37.59488230719521], [126.7976572840559, 37.59480581818803], [126.79771660749836, 37.59472257060287], [126.79781499140353, 37.59459041281155], [126.79807919535416, 37.59424061165993], [126.79816793878919, 37.59413939493052], [126.79822117283835, 37.59408374308874], [126.79831325092724, 37.59398817220572], [126.79845922367451, 37.59385242824061], [126.79865947517163, 37.593667513441915], [126.80028694451532, 37.59204178710149], [126.8011640987835, 37.58939830965799], [126.80094007508913, 37.58816612344872], [126.80073874918791, 37.58783973252001], [126.80056961406461, 37.58784169758019], [126.79344108035994, 37.58451960555157], [126.7937317691296, 37.583038595929175], [126.7936954447703, 37.58159385726774], [126.78956261366767, 37.58405464819547], [126.78725572048826, 37.58545376565341], [126.78710367748693, 37.585545840941485], [126.78704803566477, 37.585579526676284], [126.78704774797005, 37.58557952764255], [126.7869424167746, 37.585545549166355], [126.7866944301384, 37.58528747120427], [126.78553852916221, 37.58407579108772], [126.78411326100696, 37.58258524682126], [126.78403333890448, 37.5826337037061], [126.78204998601993, 37.58383763066709], [126.7800822817133, 37.584335128274724], [126.77864226302005, 37.58459060444701], [126.77836737394247, 37.5846300575046], [126.77640075103754, 37.58476711567028], [126.77299066027948, 37.58504747924381], [126.77275187466041, 37.585095158939446], [126.77254786374928, 37.585167120818966], [126.77243627824063, 37.58521476533526], [126.77095053623675, 37.58599770159837], [126.77086493930013, 37.58604680846211], [126.76766736515502, 37.588231602321216], [126.76683113882532, 37.58730023507311], [126.76675389684293, 37.58722208367252], [126.7666069316395, 37.587151684932635], [126.7656781610704, 37.58670750497698], [126.76532268318063, 37.58656151925344], [126.76462808282012, 37.586247035629], [126.76382361183776, 37.58585602444198], [126.7636999529583, 37.5857462421374], [126.76351593508802, 37.5855378079156], [126.7634698187668, 37.58546028391794], [126.76339960419054, 37.58508354406889], [126.76327870692369, 37.58501081077614], [126.76317732955742, 37.58496217831378], [126.7630763799456, 37.584942548869364], [126.75950958038491, 37.584998649624126], [126.75855381278936, 37.58504482614358], [126.7580112097439, 37.58522193114857], [126.75800805269563, 37.585322159481656], [126.75798490784464, 37.585327966394665], [126.75602797282882, 37.583526792688836], [126.75565033027524, 37.58289306772851], [126.75561659673805, 37.58249937568646], [126.75553877554792, 37.58142197860375], [126.75557507837397, 37.58130267437506], [126.75581324425929, 37.58106384160958], [126.75590606362005, 37.58097507115544], [126.75605557986322, 37.580902735982654], [126.7560517769641, 37.58088188848048], [126.75597241779032, 37.5806987156932], [126.75584300722981, 37.58045742382331], [126.7557255934805, 37.58032840289085], [126.75469835655989, 37.58013716938028], [126.75218236634876, 37.57971432832334], [126.74971348834657, 37.58146122250408], [126.74740032175542, 37.586253059701505], [126.74432404874351, 37.59249536877054], [126.74164670392703, 37.59207200287272], [126.74164644042395, 37.59207196152102], [126.73923933045424, 37.592845986009394], [126.73902477407287, 37.593560097205575], [126.73903365979245, 37.593599534585394], [126.73901279669441, 37.593702679173084], [126.73788915498545, 37.593448880411216], [126.73779671409783, 37.59342305969363], [126.73701658180707, 37.5931757951197], [126.73691081402752, 37.59311812011775], [126.73677438739936, 37.59297365672221], [126.7367279407396, 37.59274999191713], [126.73666399125044, 37.591846904370115], [126.73670116316863, 37.59139001893385], [126.73674645670496, 37.59098974185446], [126.73663082954022, 37.59072172836632], [126.73633207145127, 37.59050820077662], [126.73625269502081, 37.59048278786467], [126.7350449159541, 37.59068295763036], [126.73369155820393, 37.59104676392336], [126.73110735556516, 37.591829231221375], [126.72990167071102, 37.59221473233371], [126.72724806003407, 37.59190339004188], [126.72546216894096, 37.59187463237035], [126.72428476534346, 37.5932935682916], [126.7220435645157, 37.59581355256838], [126.71822171227524, 37.5983014547561], [126.71737981227781, 37.59868713225073], [126.71731776505506, 37.59872104882751], [126.71725729150583, 37.598758077284444], [126.71697287607012, 37.59896545594006], [126.71637739210726, 37.599407193047924], [126.71630419646556, 37.59948725794868], [126.71616213227583, 37.599907375137384], [126.71586912951621, 37.60086734562706], [126.71406736771735, 37.60385422671378], [126.7112742183171, 37.60501208555445], [126.71019766944241, 37.60514541890882], [126.70960283184536, 37.60512958753948], [126.7084082299084, 37.60491067955212], [126.70823129818787, 37.60472469233628], [126.70768955275832, 37.604167837211236], [126.70761427931915, 37.60409557164703], [126.7069298909495, 37.60359015480859], [126.70468146190316, 37.60247463119927], [126.70419989045666, 37.602991202611406], [126.70405504212289, 37.60359646738178], [126.70402747895902, 37.60371830962176], [126.7040032978215, 37.60465522149513], [126.70513029931942, 37.606547448083674], [126.7057858582164, 37.6071386750568], [126.70612543992748, 37.607677004944726], [126.70620931516795, 37.609690910908995], [126.7061946636872, 37.60981560566246], [126.70618570550502, 37.609890085191765], [126.70544693878747, 37.612053816859515], [126.70474398613915, 37.61167857032141], [126.70439154726989, 37.61188181710671], [126.70406016485126, 37.612087071500184], [126.70090545662073, 37.614271276588084], [126.70021025792683, 37.61507475194608], [126.69993222295317, 37.61560061176691], [126.69773398044326, 37.61787477635537], [126.69446850885251, 37.62033922049515], [126.68886983469356, 37.62201600564802], [126.68527760167002, 37.62426784598185], [126.68336642074651, 37.62507728218801], [126.68171395516458, 37.626570407873814], [126.67913354081482, 37.62958738241988], [126.6780599417846, 37.62947858043924], [126.67597435408916, 37.62958096138049], [126.67470536921745, 37.629879003856736], [126.67453605898429, 37.63033707578747], [126.67426195978824, 37.631203792988416], [126.6741470899256, 37.632050111319614], [126.6724221625046, 37.63384163055382], [126.66697445424, 37.635939085556075], [126.6661115811115, 37.63611148833372], [126.66548915441616, 37.6362347269617], [126.66461478885711, 37.63596982545905], [126.66423027459379, 37.636053751547514], [126.66369611005426, 37.63619018927727], [126.66274754837983, 37.63675974446401], [126.66056373058701, 37.6371539432354], [126.65742209740245, 37.637954860817736], [126.6559001855374, 37.63793969483903], [126.65554497972047, 37.63793838855513], [126.6540094175943, 37.63821402504023], [126.65177454857118, 37.63645446018803], [126.65150541084131, 37.63514669260144], [126.64964500780097, 37.63186499272005], [126.64878719787924, 37.630519412320055], [126.64744767973353, 37.628187507980535], [126.64711015252023, 37.62747838748832], [126.64635239226006, 37.62777737198578], [126.6457020354765, 37.628406464882595], [126.6456967515975, 37.6284125583119], [126.64464467740586, 37.62851637154228], [126.64221322227944, 37.62810242904097], [126.6391152682969, 37.6273093864752], [126.63719125931452, 37.6267031590073], [126.63719139140936, 37.62670290760338], [126.63725977151576, 37.626509409097196], [126.63737616607713, 37.624989938654004], [126.63657430340928, 37.62049029057994], [126.63649561749585, 37.6203667230819], [126.6364610002827, 37.620351136451845], [126.63477700635917, 37.61959387018653], [126.63373221620819, 37.61924543891236], [126.63317566849527, 37.618874590260305], [126.632169141193, 37.61763035088464], [126.63203698112852, 37.61679838957376], [126.63208409438946, 37.61675630727943], [126.63213956468647, 37.616686194922636], [126.63213964749744, 37.616686089175694], [126.63215294219815, 37.61664756079364], [126.63228230705698, 37.61625435584979], [126.63230858170414, 37.61616574538384], [126.63234906877732, 37.61602903219349], [126.6323246575604, 37.61588592550783], [126.63210968162015, 37.61501609888827], [126.63208727129917, 37.614967033709455], [126.63206433568985, 37.61491910213135], [126.63155990924669, 37.61400021136161], [126.63094391969962, 37.613278903121035], [126.62933278190559, 37.61058329109502], [126.6277898196611, 37.606401167926606], [126.62654726961091, 37.60514862889243], [126.62581885843396, 37.60273882811278], [126.62581666355936, 37.60268223935881], [126.62574102708598, 37.602592747226794], [126.62357827595692, 37.60217138362133], [126.6233227788123, 37.602307963483796], [126.62266464170531, 37.60295586347177], [126.6215530748961, 37.60330535688871], [126.61982092218287, 37.60352050694678], [126.61691108189876, 37.60355227077836], [126.6164882209117, 37.603717573829655], [126.61597521461482, 37.60441049799793], [126.61583562166015, 37.60488982130808], [126.61577161006991, 37.60511935209598], [126.61568941466989, 37.60545588682623], [126.61568936226554, 37.605456102751006], [126.61552221923336, 37.60568192760278], [126.61435581334659, 37.606287113762136], [126.6094701377608, 37.604543929793444], [126.60706594667221, 37.60169925454311], [126.60546798703446, 37.60026443999442], [126.60480532938041, 37.599804400412964], [126.60362877577978, 37.59899294089956], [126.6013884773512, 37.59770006664897], [126.59814323864414, 37.59628433264253], [126.59185360362855, 37.59316162079775], [126.5918223737467, 37.59314546672617], [126.59155603577469, 37.59303265155025], [126.59083353797472, 37.59499313850622], [126.59024299049916, 37.5967440957015], [126.59024621416206, 37.59679249092642], [126.59030080408371, 37.596851730231464], [126.59047891238309, 37.59702057231191], [126.59083158207395, 37.59728203774836], [126.59215541431237, 37.59826311888258], [126.59180473903406, 37.59909451169097], [126.58683601898231, 37.599455028389364], [126.58522974786652, 37.59957452049979], [126.58154576507094, 37.60029855939651], [126.58154095911624, 37.60036899811927], [126.58194392020056, 37.601527735684314], [126.58209422488386, 37.60196560401787], [126.58204087884397, 37.60231057896557], [126.58130350127489, 37.60294413536535], [126.58026077692638, 37.60354317374106], [126.57970512584862, 37.60390489256572], [126.57795102541449, 37.60500615366657], [126.57785913341625, 37.60490514030216], [126.57779541690483, 37.604811642340344], [126.57779990682185, 37.604772899013284], [126.57780712680864, 37.60472389475552], [126.57784275091423, 37.60462275114209], [126.5778282253779, 37.60457408169355], [126.57756159059072, 37.60401644812854], [126.57739558934024, 37.60381417667276], [126.57621933577286, 37.602511889742296], [126.5732592593875, 37.60043892310779], [126.57338251212752, 37.600072790128635], [126.57366911600595, 37.599221433234355], [126.5725927952091, 37.5989087444864], [126.57179852317071, 37.59924011694676], [126.57015679604555, 37.60089218580176], [126.57015585862796, 37.60089350515963], [126.57015521103068, 37.60089493045291], [126.5700959807724, 37.60107011491188], [126.57009593591138, 37.60107026057232], [126.57009560559858, 37.601071678450786], [126.57005715051763, 37.601289612176984], [126.57012887621993, 37.60161936124155], [126.56606801828966, 37.603856646734926], [126.56594764367706, 37.603917919348305], [126.5658541357259, 37.60394916342839], [126.56578506482938, 37.603957512680985], [126.5611709604889, 37.603658769882024], [126.56077948196132, 37.601768358036075], [126.55983489206885, 37.60114169652276], [126.55979046057455, 37.60123560978727], [126.55830072297462, 37.6038852958416], [126.55730470994315, 37.60561967649454], [126.55730170369253, 37.60562448535204], [126.55729233548391, 37.605630784642536], [126.55728052108034, 37.605635218489134], [126.55683120841172, 37.60573368459313], [126.55642476485743, 37.60573844814159], [126.55641319585712, 37.60575690117573], [126.55489062377647, 37.60821788848891], [126.55450996606552, 37.60933942493425], [126.55456756535706, 37.61000755415473], [126.55479627171219, 37.61053956150258], [126.55502479695295, 37.610835252137136], [126.55507202129945, 37.610835313042216], [126.55509350223096, 37.61093313205591], [126.55510327439873, 37.611034394079596], [126.55524516154057, 37.61361154001251], [126.55531604182657, 37.61495944034209], [126.55339166115036, 37.62009213543334], [126.550906111585, 37.62724719682172], [126.55048989902998, 37.62818865714974], [126.54730353283063, 37.63427072353584], [126.54579603395396, 37.63608046349601], [126.54416338881816, 37.63797228486157], [126.54228926170028, 37.638256115937374], [126.54223205471362, 37.638239406243144], [126.54137671596213, 37.638070990563385], [126.53931497585087, 37.63958040153752], [126.53923369070463, 37.63965306316816], [126.537225516301, 37.64471435826986], [126.5376790629028, 37.64471614102729], [126.53826630237613, 37.644718449652544], [126.53825441153506, 37.64480850012736], [126.53562598568267, 37.650203959147895], [126.53344628448205, 37.652654972761], [126.53157620732703, 37.65450353109907], [126.5314836772658, 37.65480048128546], [126.53161739034222, 37.65516140188702], [126.5339371685662, 37.65569317934187], [126.53454824229266, 37.655830745451645], [126.53526223145722, 37.65582456022695], [126.5377302455445, 37.65655289586426], [126.54181545832395, 37.658994660931285], [126.54335711406645, 37.66077555579937], [126.54410453036381, 37.66271553250903], [126.54415992514143, 37.662922970808985], [126.54281584837867, 37.66401692107385], [126.54246406836931, 37.66408763955444], [126.54183962396166, 37.66426540073752], [126.54046349538301, 37.665034860565], [126.54044071424259, 37.66505278973555], [126.54003047766426, 37.66541157217016], [126.53996208775477, 37.66547437212155], [126.53982501295057, 37.665645020526064], [126.5395964966559, 37.665941444528464], [126.53949143580049, 37.66643656300289], [126.53952409665287, 37.666652923173224], [126.53956775715181, 37.666923382926015], [126.53972492348394, 37.667167258925694], [126.53997203462447, 37.667528604386014], [126.54008421348593, 37.667718255095146], [126.54031966020595, 37.668133619445406], [126.54035308205685, 37.66822384739958], [126.54035220195253, 37.66836800634807], [126.53972329510562, 37.66925749195251], [126.53583498791969, 37.67117027043676], [126.53460724515463, 37.67174204271261], [126.53385782432345, 37.671955296688566], [126.53175809453268, 37.672397435397286], [126.52940846860905, 37.672919623523825], [126.52872735710504, 37.67307906885578], [126.52812546387902, 37.67325684672309], [126.52786426150678, 37.67333688590874], [126.52768210385626, 37.673462297274895], [126.52732906492209, 37.67372214950701], [126.5268269468105, 37.67425169798695], [126.52700554946722, 37.67468487956642], [126.5271866225328, 37.67473065635241], [126.52849358406918, 37.675979234224314], [126.53004757187027, 37.67760719221174], [126.53120164901274, 37.6797470821685], [126.53126868673722, 37.67990051424427], [126.53182718086401, 37.68121814520434], [126.53219520327067, 37.68218364015114], [126.53276096400303, 37.68414998855551], [126.53396471846803, 37.685385772281], [126.5333292767623, 37.68571992088652], [126.53379136017247, 37.68976707410473], [126.53346757140847, 37.693959247204546], [126.53236742095085, 37.699834162345006], [126.53200427131982, 37.70167968492503], [126.5319691740655, 37.70185072726717], [126.53186399653555, 37.70234583628621], [126.53140109916019, 37.703821565320936], [126.53121705092775, 37.704235273385486], [126.53098707290432, 37.70473889342576], [126.53065412340575, 37.70538625513769], [126.53028674957787, 37.7060965446104], [126.52839364633179, 37.70777375727166], [126.52813145134152, 37.707988935242895], [126.5276756711419, 37.70832946910092], [126.52694674826348, 37.70882206437611], [126.52593517383985, 37.709178372286345], [126.52519638884488, 37.70943666829797], [126.52446836209894, 37.70978509857612], [126.52420666975004, 37.70991918352702], [126.52347504582252, 37.71082618714082], [126.52326912315885, 37.711104649835434], [126.52224949232354, 37.7127042142732], [126.52205425088248, 37.71308182344377], [126.52179988594982, 37.71383759338927], [126.5216260544349, 37.71441350776991], [126.52162547338003, 37.71450359153156], [126.52168027215349, 37.71655799787082], [126.52171080978023, 37.71709869695993], [126.5217728161586, 37.71803594429056], [126.5217833908123, 37.71815311179761], [126.52184725856785, 37.71880206029779], [126.5219551690134, 37.71965839904688], [126.52294688068925, 37.72417622113013], [126.5231471167331, 37.72478969322403], [126.52325845604705, 37.725114489501095], [126.524484070328, 37.728561105978294], [126.52451750977792, 37.72865133681037], [126.52462949773569, 37.72887702843454], [126.52480874738475, 37.72922912653386], [126.52611955029826, 37.73179313273499], [126.52616481042035, 37.731811334349175], [126.52668046177004, 37.73277743442828], [126.5283001966706, 37.736730128704245], [126.52836718466473, 37.736901578669254], [126.52952703139336, 37.7400505584152], [126.52995082280283, 37.7412054757617], [126.5310344103164, 37.74746241249749], [126.53102072474816, 37.74783175838896], [126.53099546647664, 37.74823708618386], [126.53093479930784, 37.74885850142805], [126.53089950519632, 37.749056570226614], [126.53073592069701, 37.74980370702167], [126.53068934723511, 37.74999272137188], [126.53034488730738, 37.75063102087506], [126.53014982507993, 37.750972603035606], [126.52914257650333, 37.75234702758046], [126.52865069792514, 37.75296671221792], [126.52645539447124, 37.75557064365519], [126.52535843570666, 37.756755472664196], [126.52443564839871, 37.75731933168545], [126.52364907583681, 37.757874743831294], [126.5208322260652, 37.76002557064585], [126.51957594578315, 37.76125474274627], [126.51860420917818, 37.76234992432557], [126.51834032771691, 37.762790308135436], [126.51835131288423, 37.76284441864318], [126.51873002454796, 37.76394512143354], [126.51923181589983, 37.76531661956586], [126.5196711439967, 37.765822956884215], [126.52010017986231, 37.766167062622294], [126.5207099865961, 37.76663804626844], [126.52107152020537, 37.76689178628109], [126.52124099803713, 37.76700960055311], [126.52202122937692, 37.76745424298116], [126.52231549140754, 37.76758157246258], [126.52353784130781, 37.768109087849155], [126.52450031081317, 37.76845534810381], [126.5170495848259, 37.7710286968554], [126.51799769394326, 37.77706894498257], [126.52278317183797, 37.790098159061586], [126.53721400138427, 37.78443489566554], [126.55223403151301, 37.7785829017573], [126.5546803152269, 37.77761918729306], [126.567629562902, 37.768279668837614], [126.57534518062495, 37.76270390526986]]]]}, "properties": {"name": "김포시", "base_year": "2018", "name_eng": "Gimpo-si", "code": "31230"}}]}